ONEWEB-0128             
1 47274U 20100S   25364.62270082 -.00000381  00000+0 -10956-2 0  9990
2 47274  87.8914  24.1751 0001730  82.7129 277.4196 13.12440780242636
ONEWEB-0129             
1 47275U 20100T   25364.60239087  .00000169  00000+0  43467-3 0  9995
2 47275  87.8930  24.1355 0000752 122.9778 237.1423 13.12440401242563
ONEWEB-0130             
1 47276U 20100U   25364.62950316 -.00000503  00000+0 -14331-2 0  9994
2 47276  87.8926  24.1248 0001680  90.7313 269.4008 13.12442308242530
ONEWEB-0131             
1 47277U 20100V   25364.62610076 -.00000424  00000+0 -12147-2 0  9996
2 47277  87.8927  24.1559 0001760  91.3827 268.7503 13.12440775242575
ONEWEB-0132             
1 47278U 20100W   25364.57867419  .00000276  00000+0  73058-3 0  9998
2 47278  87.8922  24.1664 0001735  88.8987 271.2340 13.12442896242460
ONEWEB-0133             
1 47279U 20100X   25364.59547479  .00000385  00000+0  10357-2 0  9995
2 47279  87.8926  24.1245 0001780  86.9648 273.1684 13.12441658242628
ONEWEB-0134             
1 47280U 20100Y   25364.56513117 -.00000156  00000+0 -47027-3 0  9999
2 47280  87.8929  24.1266 0001573  85.6330 274.4979 13.12443955242599
ONEWEB-0135             
1 47281U 20100Z   25364.61256035 -.00000126  00000+0 -38425-3 0  9998
2 47281  87.8924  24.1563 0001596  81.1422 278.9887 13.12441285242628
